CCSDS_OEM_VERS = 1.0
CREATION_DATE  = 2017-05-11T11:01:16
ORIGINATOR     = GMAT USER

META_START
OBJECT_NAME          = MOPSSat_alt_35785_km_RAAN_0_073
OBJECT_ID            = SatId
CENTER_NAME          = Earth
REF_FRAME            = EME2000
TIME_SYSTEM          = UTC
START_TIME           = 2017-01-01T00:00:00.000
USEABLE_START_TIME   = 2017-01-01T00:00:00.000
USEABLE_STOP_TIME    = 2017-01-02T00:00:00.000
STOP_TIME            = 2017-01-02T00:00:00.000
INTERPOLATION        = Lagrange
INTERPOLATION_DEGREE = 7 
META_STOP


                                                                                   

2017-01-01T03:49:10.000   2.261315811983203e+04   3.555884416768663e+04   6.199483823699255e+01  -2.594638842723072e+00   1.652895206691932e+00   2.886234200213382e-03
2017-01-01T03:49:20.000   2.258720571019172e+04   3.557536364789371e+04   6.202368416495084e+01  -2.595842758459788e+00   1.651000627431766e+00   2.882951033647915e-03
2017-01-01T03:49:30.000   2.256124126854818e+04   3.559186417778059e+04   6.205249725346283e+01  -2.597045289368628e+00   1.649105172058615e+00   2.879666362303857e-03
2017-01-01T03:49:40.000   2.253526480902094e+04   3.560834574842091e+04   6.208127748719205e+01  -2.598246434800405e+00   1.647208841606292e+00   2.876380187957656e-03
2017-01-01T03:49:50.000   2.250927634520201e+04   3.562480835123755e+04   6.211002485141167e+01  -2.599446194131397e+00   1.645311637070098e+00   2.873092512319019e-03
2017-01-01T03:50:00.000   2.248327589075167e+04   3.564125197762407e+04   6.213873933134333e+01  -2.600644566735746e+00   1.643413559450315e+00   2.869803337106271e-03
2017-01-01T03:50:10.000   2.245726345926366e+04   3.565767661903091e+04   6.216742091230756e+01  -2.601841551991744e+00   1.641514609742363e+00   2.866512664029302e-03
2017-01-01T03:50:20.000   2.243123906460044e+04   3.567408226674987e+04   6.219606957934786e+01  -2.603037149266137e+00   1.639614788961276e+00   2.863220494831962e-03
2017-01-01T03:50:30.000   2.240520272064477e+04   3.569046891207495e+04   6.222468531751115e+01  -2.604231357925826e+00   1.637714098123567e+00   2.859926831260645e-03
2017-01-01T03:50:40.000   2.237915444129899e+04   3.570683654630119e+04   6.225326811184580e+01  -2.605424177337801e+00   1.635812538247178e+00   2.856631675064207e-03
2017-01-01T03:50:50.000   2.235309424073710e+04   3.572318516056982e+04   6.228181794713138e+01  -2.606615606857847e+00   1.633910110369875e+00   2.853335028025865e-03
2017-01-01T03:51:00.000   2.232702213306592e+04   3.573951474607785e+04   6.231033480824456e+01  -2.607805645845822e+00   1.632006815524519e+00   2.850036891920303e-03
2017-01-01T03:51:10.000   2.230093813245827e+04   3.575582529399522e+04   6.233881868001449e+01  -2.608994293659620e+00   1.630102654748786e+00   2.846737268530550e-03
2017-01-01T03:51:20.000   2.227484225256455e+04   3.577211679583297e+04   6.236726954786563e+01  -2.610181549681991e+00   1.628197629042209e+00   2.843436159573504e-03
2017-01-01T03:51:30.000   2.224873450710103e+04   3.578838924307487e+04   6.239568739717458e+01  -2.611367413293715e+00   1.626291739409131e+00   2.840133566774388e-03
2017-01-01T03:51:40.000   2.222261490971714e+04   3.580464262726111e+04   6.242407221341613e+01  -2.612551883879681e+00   1.624384986849007e+00   2.836829491849938e-03
2017-01-01T03:51:50.000   2.219648347433202e+04   3.582087693977508e+04   6.245242398179102e+01  -2.613734960813362e+00   1.622477372380982e+00   2.833523936551006e-03
2017-01-01T03:52:00.000   2.217034021488511e+04   3.583709217200241e+04   6.248074268750361e+01  -2.614916643468399e+00   1.620568897025678e+00   2.830216902630984e-03
2017-01-01T03:52:10.000   2.214418514533540e+04   3.585328831532994e+04   6.250902831576002e+01  -2.616096931218526e+00   1.618659561805142e+00   2.826908391845726e-03
2017-01-01T03:52:20.000   2.211801827991459e+04   3.586946536099248e+04   6.253728085150068e+01  -2.617275823426412e+00   1.616749367761324e+00   2.823598405985553e-03
2017-01-01T03:52:30.000   2.209183963278676e+04   3.588562330028022e+04   6.256550027976225e+01  -2.618453319458754e+00   1.614838315931237e+00   2.820286946832216e-03
2017-01-01T03:52:40.000   2.206564921818229e+04   3.590176212445665e+04   6.259368658553463e+01  -2.619629418680325e+00   1.612926407356726e+00   2.816974016175834e-03
2017-01-01T03:52:50.000   2.203944704980674e+04   3.591788182512296e+04   6.262183975439716e+01  -2.620804120480506e+00   1.611013643041326e+00   2.813659615740112e-03
2017-01-01T03:53:00.000   2.201323314143187e+04   3.593398239385349e+04   6.264995977188205e+01  -2.621977424246726e+00   1.609100023993400e+00   2.810343747257103e-03
2017-01-01T03:53:10.000   2.198700750676215e+04   3.595006382227856e+04   6.267804662361884e+01  -2.623149329370503e+00   1.607185551216393e+00   2.807026412450334e-03
2017-01-01T03:53:20.000   2.196077015977282e+04   3.596612610187344e+04   6.270610029496619e+01  -2.624319835232066e+00   1.605270225733514e+00   2.803707613077572e-03
2017-01-01T03:53:30.000   2.193452111445936e+04   3.598216922411586e+04   6.273412077128657e+01  -2.625488941211819e+00   1.603354048569449e+00   2.800387350899127e-03
2017-01-01T03:53:40.000   2.190826038483685e+04   3.599819318048478e+04   6.276210803794447e+01  -2.626656646690274e+00   1.601437020750310e+00   2.797065627677769e-03
2017-01-01T03:53:50.000   2.188198798519402e+04   3.601419796230900e+04   6.279006208004169e+01  -2.627822951036995e+00   1.599519143322179e+00   2.793742445210847e-03
2017-01-01T03:54:00.000   2.185570392975165e+04   3.603018356097218e+04   6.281798288277560e+01  -2.628987853625562e+00   1.597600417326179e+00   2.790417805287094e-03
2017-01-01T03:54:10.000   2.182940823279950e+04   3.604614996783027e+04   6.284587043129487e+01  -2.630151353827533e+00   1.595680843808462e+00   2.787091709703947e-03
2017-01-01T03:54:20.000   2.180310090809300e+04   3.606209717457784e+04   6.287372471133938e+01  -2.631313451039155e+00   1.593760423776171e+00   2.783764160191252e-03
2017-01-01T03:54:30.000   2.177678196945791e+04   3.607802517288067e+04   6.290154570859826e+01  -2.632474144654575e+00   1.591839158241582e+00   2.780435158487732e-03
2017-01-01T03:54:40.000   2.175045143063443e+04   3.609393395447068e+04   6.292933340887602e+01  -2.633633434072775e+00   1.589917048210721e+00   2.777104706321269e-03
2017-01-01T03:54:50.000   2.172410930569623e+04   3.610982351088988e+04   6.295708779764509e+01  -2.634791318678898e+00   1.587994094713951e+00   2.773772805461885e-03
2017-01-01T03:55:00.000   2.169775560870479e+04   3.612569383370202e+04   6.298480886041575e+01  -2.635947797859684e+00   1.586070298780746e+00   2.770439457678052e-03
2017-01-01T03:55:10.000   2.167139035378656e+04   3.614154491444536e+04   6.301249658265320e+01  -2.637102871000013e+00   1.584145661445317e+00   2.767104664746430e-03
2017-01-01T03:55:20.000   2.164501355511268e+04   3.615737674464667e+04   6.304015094980246e+01  -2.638256537483942e+00   1.582220183745135e+00   2.763768428449326e-03
2017-01-01T03:55:30.000   2.161862522687202e+04   3.617318931583597e+04   6.306777194731381e+01  -2.639408796695764e+00   1.580293866718960e+00   2.760430750571274e-03
2017-01-01T03:55:40.000   2.159222538326180e+04   3.618898261955225e+04   6.309535956065301e+01  -2.640559648020441e+00   1.578366711406159e+00   2.757091632897842e-03
2017-01-01T03:55:50.000   2.156581403839346e+04   3.620475664740080e+04   6.312291377540114e+01  -2.641709090847763e+00   1.576438718839835e+00   2.753751077203714e-03
2017-01-01T03:56:00.000   2.153939120635523e+04   3.622051139101448e+04   6.315043457718740e+01  -2.642857124569543e+00   1.574509890051394e+00   2.750409085260619e-03
2017-01-01T03:56:10.000   2.151295690121212e+04   3.623624684205414e+04   6.317792195168943e+01  -2.644003748579639e+00   1.572580226070540e+00   2.747065658837331e-03
2017-01-01T03:56:20.000   2.148651113694252e+04   3.625196299224532e+04   6.320537588469755e+01  -2.645148962276621e+00   1.570649727920654e+00   2.743720799691659e-03
2017-01-01T03:56:30.000   2.146005392753302e+04   3.626765983332250e+04   6.323279636201744e+01  -2.646292765059727e+00   1.568718396625709e+00   2.740374509582433e-03
2017-01-01T03:56:40.000   2.143358528698805e+04   3.628333735702363e+04   6.326018336946050e+01  -2.647435156328450e+00   1.566786233210981e+00   2.737026790270717e-03
2017-01-01T03:56:50.000   2.140710522935550e+04   3.629899555507323e+04   6.328753689281461e+01  -2.648576135481309e+00   1.564853238704911e+00   2.733677643523040e-03
2017-01-01T03:57:00.000   2.138061376874877e+04   3.631463441917154e+04   6.331485691782454e+01  -2.649715701915063e+00   1.562919414140719e+00   2.730327071114198e-03
2017-01-01T03:57:10.000   2.135411091926845e+04   3.633025394103966e+04   6.334214343027153e+01  -2.650853855027996e+00   1.560984760550691e+00   2.726975074817348e-03
2017-01-01T03:57:20.000   2.132759669535269e+04   3.634585411221585e+04   6.336939641561693e+01  -2.651990594205073e+00   1.559049278991747e+00   2.723621656448331e-03
2017-01-01T03:57:30.000   2.130107111135290e+04   3.636143492430292e+04   6.339661585943465e+01  -2.653125918835976e+00   1.557112970514472e+00   2.720266817811997e-03
2017-01-01T03:57:40.000   2.127453418169141e+04   3.637699636887613e+04   6.342380174725004e+01  -2.654259828308378e+00   1.555175836174622e+00   2.716910560722146e-03
2017-01-01T03:57:50.000   2.124798592025109e+04   3.639253843784121e+04   6.345095406516550e+01  -2.655392322034041e+00   1.553237876988578e+00   2.713552886924324e-03
2017-01-01T03:58:00.000   2.122142634098413e+04   3.640806112307697e+04   6.347807279923627e+01  -2.656523399422774e+00   1.551299093977769e+00   2.710193798172817e-03
2017-01-01T03:58:10.000   2.119485545777420e+04   3.642356441651671e+04   6.350515793561227e+01  -2.657653059888363e+00   1.549359488158623e+00   2.706833296213227e-03
